{"spkid": "20162979", "covariance": {"labels": ["e", "q", "tp", "node", "peri", "i"], "data": [["9.688124782344328E-15", "-2.055272214876703E-14", "-8.686377221758901E-12", "2.789368851755211E-13", "-1.573349966062824E-12", "-1.802298385863203E-13"], ["-2.055272214876703E-14", "4.368111071473044E-14", "1.94495960487701E-11", "-5.984701429830673E-13", "3.551628601882654E-12", "3.161472313937477E-13"], ["-8.686377221758901E-12", "1.94495960487701E-11", "2.106131065389562E-8", "-3.409819552238759E-10", "4.243434788440398E-9", "-7.085804848708595E-10"], ["2.789368851755211E-13", "-5.984701429830673E-13", "-3.409819552238759E-10", "6.764765957226372E-10", "-6.9778734069679E-10", "2.383528936842274E-10"], ["-1.573349966062824E-12", "3.551628601882654E-12", "4.243434788440398E-9", "-6.9778734069679E-10", "1.508380150968753E-9", "-3.941683946239719E-10"], ["-1.802298385863203E-13", "3.161472313937477E-13", "-7.085804848708595E-10", "2.383528936842274E-10", "-3.941683946239719E-10", "3.617047680304748E-10"]], "elements": [{"label": "e", "title": "eccentricity", "value": ".5442348249346866", "units": null, "name": "e", "sigma": 9.84282722714583e-08}, {"label": "q", "name": "q", "sigma": 2.09000264867608e-07, "units": "au", "value": ".9281595170621381", "title": "perihelion distance"}, {"value": "2458477.566001551608", "title": "time of perihelion passage", "units": "TDB", "name": "tp", "sigma": 0.000145125155138231, "label": "tp"}, {"sigma": 2.60091636874898e-05, "name": "om", "units": "deg", "title": "longitude of the ascending node", "value": "311.6045316555682", "label": "node"}, {"name": "w", "sigma": 3.88378700622054e-05, "value": "326.0370935753492", "title": "argument of perihelion", "units": "deg", "label": "peri"}, {"label": "i", "units": "deg", "title": "inclination", "value": "17.08713641840319", "name": "i", "sigma": 1.90185374840043e-05}], "epoch": "2458364.5"}, "elements": [{"label": "e", "name": "e", "sigma": "9.7821E-8", "value": ".5429831550871952", "title": "eccentricity", "units": null}, {"label": "a", "sigma": "2.713E-8", "name": "a", "units": "au", "value": "2.038534888429274", "title": "semi-major axis"}, {"title": "perihelion distance", "value": ".9316447829546233", "units": "au", "sigma": "2.0772E-7", "name": "q", "label": "q"}, {"sigma": "1.9034E-5", "name": "i", "value": "17.09823525386609", "title": "inclination; angle with respect to x-y ecliptic plane", "units": "deg", "label": "i"}, {"label": "node", "value": "311.527927850219", "title": "longitude of the ascending node", "units": "deg", "name": "om", "sigma": "2.5942E-5"}, {"label": "peri", "sigma": "3.8782E-5", "name": "w", "title": "argument of perihelion", "value": "326.176340103617", "units": "deg"}, {"name": "ma", "sigma": "6.7643E-5", "title": "mean anomaly", "value": "203.1661571471831", "units": "deg", "label": "M"}, {"title": "time of perihelion passage", "value": "2461663.640684234513", "units": "TDB", "sigma": ".00020898", "name": "tp", "label": "tp"}, {"name": "per", "sigma": "2.1223E-5", "units": "d", "title": "sidereal orbital period", "value": "1063.103749111698", "label": "period"}, {"label": "n", "units": "deg/d", "title": "mean motion", "value": ".338631107547882", "name": "n", "sigma": "6.76E-9"}, {"units": "au", "title": "aphelion distance", "value": "3.145424993903924", "name": "ad", "sigma": "4.1861E-8", "label": "Q"}], "epoch": "2461200.5"}